NORAD_CAT_ID,OBJECT_NAME,OBJECT_TYPE,EPOCH,MEAN_MOTION,ECCENTRICITY,INCLINATION,RA_OF_ASC_NODE,ARG_OF_PERICENTER,MEAN_ANOMALY,BSTAR,MEAN_MOTION_DOT,MEAN_MOTION_DDOT,TLE_LINE0,TLE_LINE1,TLE_LINE2,SEMIMAJOR_AXIS,PERIOD,APOGEE,PERIGEE,DECAYED
54079.0,STARLINK-5175,PAYLOAD,2023-10-01 12:10:47,15.08835978,0.0001779,53.2195,10.5266,94.8468,265.2727,-6.1552e-05,-1.267e-05,0.0,0 STARLINK-5175,1 54079U 22136AE  23274.50749133 -.00001267  00000-0 -61552-4 0  9990,2 54079  53.2195  10.5266 0001779  94.8468 265.2727 15.08835978 53075,6917.893,95.438,540.988,538.527,0.0
54079.0,STARLINK-5175,PAYLOAD,2023-10-01 13:46:10,15.08838245,0.0001827,53.2194,10.2345,97.6913,262.4287,6.3924e-06,-1.86e-06,0.0,0 STARLINK-5175,1 54079U 22136AE  23274.57373183 -.00000186  00000-0  63924-5 0  9999,2 54079  53.2194  10.2345 0001827  97.6913 262.4287 15.08838245 52607,6917.886,95.438,541.015,538.487,0.0
54079.0,STARLINK-5175,PAYLOAD,2023-10-01 15:21:33,15.08843571,0.0001872,53.22,9.9349,97.5789,262.5416,0.00010834,1.437e-05,0.0,0 STARLINK-5175,1 54079U 22136AE  23274.63996958  .00001437  00000-0  10834-3 0  9996,2 54079  53.2200   9.9349 0001872  97.5789 262.5416 15.08843571 52618,6917.869,95.437,541.029,538.439,0.0
54079.0,STARLINK-5175,PAYLOAD,2023-10-02 15:12:20,15.08839284,0.0001891,53.2189,5.4703,80.8096,279.311,5.1306e-05,5.28e-06,0.0,0 STARLINK-5175,1 54079U 22136AE  23275.63357491  .00000528  00000-0  51306-4 0  9990,2 54079  53.2189   5.4703 0001891  80.8096 279.3110 15.08839284 53249,6917.883,95.438,541.056,538.439,0.0
54079.0,STARLINK-5175,PAYLOAD,2023-10-03 13:27:44,15.08850239,0.0001829,53.2185,1.3104,75.987,284.1325,0.00021938,3.206e-05,0.0,0 STARLINK-5175,1 54079U 22136AE  23276.56093283  .00003206  00000-0  21938-3 0  9992,2 54079  53.2185   1.3104 0001829  75.9870 284.1325 15.08850239 52908,6917.849,95.437,540.979,538.449,0.0
54079.0,STARLINK-5175,PAYLOAD,2023-10-04 10:07:45,15.08848604,0.0001632,53.2175,357.4457,90.0831,270.0348,0.0002418,3.563e-05,0.0,0 STARLINK-5175,1 54079U 22136AE  23277.42205173  .00003563  00000-0  24180-3 0  9999,2 54079  53.2175 357.4457 0001632  90.0831 270.0348 15.08848604 53510,6917.854,95.437,540.848,538.59,0.0
54079.0,STARLINK-5175,PAYLOAD,2023-10-04 11:43:08,15.08852814,0.0001626,53.2166,357.1483,84.8393,275.2785,0.00024552,3.623e-05,0.0,0 STARLINK-5175,1 54079U 22136AE  23277.48828990  .00003623  00000-0  24552-3 0  9993,2 54079  53.2166 357.1483 0001626  84.8393 275.2785 15.08852814 53041,6917.841,95.437,540.831,538.581,0.0
54079.0,STARLINK-5175,PAYLOAD,2023-10-04 22:50:49,15.08865006,0.0001542,53.2167,355.0647,91.7323,268.3845,0.0004218,6.436e-05,0.0,0 STARLINK-5175,1 54079U 22136AE  23277.95196042  .00006436  00000-0  42180-3 0  9993,2 54079  53.2167 355.0647 0001542  91.7323 268.3845 15.08865006 53595,6917.804,95.436,540.736,538.602,0.0
54079.0,STARLINK-5175,PAYLOAD,2023-10-05 11:33:54,15.08830739,0.0001394,53.2176,352.6852,92.2299,267.8853,-0.00041911,-6.95e-05,0.0,0 STARLINK-5175,1 54079U 22136AE  23278.48188655 -.00006950  00000-0 -41911-3 0  9997,2 54079  53.2176 352.6852 0001394  92.2299 267.8853 15.08830739 53676,6917.909,95.438,540.738,538.809,0.0
54079.0,STARLINK-5175,PAYLOAD,2023-10-05 16:20:04,15.08835642,0.0001238,53.2176,351.7957,81.2404,278.8728,-0.00027261,-4.623e-05,0.0,0 STARLINK-5175,1 54079U 22136AE  23278.68060530 -.00004623  00000-0 -27261-3 0  9997,2 54079  53.2176 351.7957 0001238  81.2404 278.8728 15.08835642 53227,6917.894,95.438,540.615,538.902,0.0
54079.0,STARLINK-5175,PAYLOAD,2023-10-06 11:24:43,15.08827808,0.0001508,53.218,348.2254,97.5548,262.5615,-0.00018119,-3.169e-05,0.0,0 STARLINK-5175,1 54079U 22136AE  23279.47549911 -.00003169  00000-0 -18119-3 0  9996,2 54079  53.2180 348.2254 0001508  97.5548 262.5615 15.08827808 53345,6917.918,95.438,540.826,538.739,0.0
54079.0,STARLINK-5175,PAYLOAD,2023-10-07 11:15:29,15.08852657,0.0001364,53.2172,343.7672,83.507,276.6078,-0.00020378,-3.531e-05,0.0,0 STARLINK-5175,1 54079U 22136AE  23280.46909051 -.00003531  00000-0 -20378-3 0  9995,2 54079  53.2172 343.7672 0001364  83.5070 276.6078 15.08852657 53973,6917.842,95.437,540.65,538.763,0.0
54079.0,STARLINK-5175,PAYLOAD,2023-10-07 20:47:49,15.08841074,0.0001433,53.2182,341.9835,92.0555,268.0601,0.00045314,6.931e-05,0.0,0 STARLINK-5175,1 54079U 22136AE  23280.86654581  .00006931  00000-0  45314-3 0  9996,2 54079  53.2182 341.9835 0001433  92.0555 268.0601 15.08841074 54031,6917.877,95.437,540.733,538.751,0.0
54079.0,STARLINK-5175,PAYLOAD,2023-10-08 12:41:40,15.08857476,0.0001429,53.2178,339.0083,97.5003,262.6152,0.00054186,8.35e-05,0.0,0 STARLINK-5175,1 54079U 22136AE  23281.52893859  .00008350  00000-0  54186-3 0  9997,2 54079  53.2178 339.0083 0001429  97.5003 262.6152 15.08857476 53653,6917.827,95.436,540.681,538.703,0.0
54079.0,STARLINK-5175,PAYLOAD,2023-10-08 20:38:36,15.08852179,0.0001744,53.2177,337.5228,92.2495,267.8697,0.00032392,4.873e-05,0.0,0 STARLINK-5175,1 54079U 22136AE  23281.86013950  .00004873  00000-0  32392-3 0  9991,2 54079  53.2177 337.5228 0001744  92.2495 267.8697 15.08852179 53705,6917.843,95.437,540.915,538.502,0.0
54079.0,STARLINK-5175,PAYLOAD,2023-10-09 09:21:41,15.08843692,0.0001633,53.2167,335.1409,79.059,281.0586,-2.2586e-06,-3.24e-06,0.0,0 STARLINK-5175,1 54079U 22136AE  23282.39005957 -.00000324  00000-0 -22586-5 0  9993,2 54079  53.2167 335.1409 0001633  79.0590 281.0586 15.08843692 54262,6917.869,95.437,540.864,538.604,0.0
54079.0,STARLINK-5175,PAYLOAD,2023-10-09 12:32:27,15.08853081,0.0001459,53.2163,334.5463,86.6452,273.4707,0.00020988,3.055e-05,0.0,0 STARLINK-5175,1 54079U 22136AE  23282.52253533  .00003055  00000-0  20988-3 0  9997,2 54079  53.2163 334.5463 0001459  86.6452 273.4707 15.08853081 53800,6917.84,95.437,540.715,538.696,0.0
54079.0,STARLINK-5175,PAYLOAD,2023-10-09 14:07:50,15.0885366,0.0001397,53.2162,334.2486,85.5173,274.5979,0.00018671,2.686e-05,0.0,0 STARLINK-5175,1 54079U 22136AE  23282.58877440  .00002686  00000-0  18671-3 0  9997,2 54079  53.2162 334.2486 0001397  85.5173 274.5979 15.08853660 54290,6917.839,95.437,540.67,538.737,0.0
54079.0,STARLINK-5175,PAYLOAD,2023-10-10 02:50:55,15.0884245,0.0001746,53.216,331.8697,85.2032,274.916,3.4686e-05,2.64e-06,0.0,0 STARLINK-5175,1 54079U 22136AE  23283.11869951  .00000264  00000-0  34686-4 0  9990,2 54079  53.2160 331.8697 0001746  85.2032 274.9160 15.08842450 54374,6917.873,95.437,540.946,538.53,0.0
54079.0,STARLINK-5175,PAYLOAD,2023-10-10 12:23:14,15.08855125,0.0001695,53.2168,330.0874,83.6774,276.4411,0.00037021,5.611e-05,0.0,0 STARLINK-5175,1 54079U 22136AE  23283.51613429  .00005611  00000-0  37021-3 0  9997,2 54079  53.2168 330.0874 0001695  83.6774 276.4411 15.08855125 54434,6917.834,95.437,540.872,538.527,0.0
54079.0,STARLINK-5175,PAYLOAD,2023-10-10 15:34:00,15.08862242,0.0001607,53.216,329.4906,89.5198,270.5978,0.00070998,0.00011036,0.0,0 STARLINK-5175,1 54079U 22136AE  23283.64861186  .00011036  00000-0  70998-3 0  9994,2 54079  53.2160 329.4906 0001607  89.5198 270.5978 15.08862242 53971,6917.812,95.436,540.789,538.566,0.0
54079.0,STARLINK-5175,PAYLOAD,2023-10-11 02:41:43,15.08819695,0.000171,53.2168,327.4138,62.1601,297.9564,-0.00022882,-3.926e-05,0.0,0 STARLINK-5175,1 54079U 22136AE  23284.11230520 -.00003926  00000-0 -22882-3 0  9999,2 54079  53.2168 327.4138 0001710  62.1601 297.9564 15.08819695 54525,6917.942,95.439,540.99,538.624,0.0
54079.0,STARLINK-5175,PAYLOAD,2023-10-11 10:38:39,15.08830014,0.0001671,53.216,325.9249,79.584,280.534,0.0015063,0.0002376,0.0,0 STARLINK-5175,1 54079U 22136AE  23284.44350825  .00023760  00000-0  15063-2 0  9994,2 54079  53.2160 325.9249 0001671  79.5840 280.5340 15.08830014 54579,6917.911,95.438,540.932,538.62,0.0
54079.0,STARLINK-5175,PAYLOAD,2023-10-12 02:32:30,15.08851613,0.0001746,53.2164,322.9513,80.3531,279.7658,0.0014043,0.00022139,0.0,0 STARLINK-5175,1 54079U 22136AE  23285.10590996  .00022139  00000-0  14043-2 0  9999,2 54079  53.2164 322.9513 0001746  80.3531 279.7658 15.08851613 54675,6917.845,95.437,540.918,538.502,0.0
54079.0,STARLINK-5175,PAYLOAD,2023-10-12 12:04:48,15.08865977,0.0001747,53.216,321.166,83.3559,276.7632,0.001257,0.00019788,0.0,0 STARLINK-5175,1 54079U 22136AE  23285.50334426  .00019788  00000-0  12570-2 0  9996,2 54079  53.2160 321.1660 0001747  83.3559 276.7632 15.08865977 54250,6917.801,95.436,540.875,538.457,0.0
54079.0,STARLINK-5175,PAYLOAD,2023-10-12 20:01:44,15.08856914,0.0001464,53.2169,319.6774,97.9523,262.1635,0.00065618,0.00010175,0.0,0 STARLINK-5175,1 54079U 22136AE  23285.83454259  .00010175  00000-0  65618-3 0  9992,2 54079  53.2169 319.6774 0001464  97.9523 262.1635 15.08856914 54786,6917.829,95.436,540.706,538.681,0.0
54079.0,STARLINK-5175,PAYLOAD,2023-10-13 08:44:49,15.0885126,0.0001909,53.2172,317.2991,97.8529,262.2679,0.00034655,5.233e-05,0.0,0 STARLINK-5175,1 54079U 22136AE  23286.36446258  .00005233  00000-0  34655-3 0  9997,2 54079  53.2172 317.2991 0001909  97.8529 262.2679 15.08851260 54861,6917.846,95.437,541.032,538.39,0.0
54079.0,STARLINK-5175,PAYLOAD,2023-10-14 08:35:36,15.08853768,0.0001881,53.2167,312.8379,97.7013,262.4192,0.00029193,4.363e-05,0.0,0 STARLINK-5175,1 54079U 22136AE  23287.35805867  .00004363  00000-0  29193-3 0  9996,2 54079  53.2167 312.8379 0001881  97.7013 262.4192 15.08853768 55017,6917.838,95.437,541.005,538.402,0.0
54079.0,STARLINK-5175,PAYLOAD,2023-10-15 05:15:38,15.0882567,0.000178,53.2167,308.9713,105.6464,254.4724,-0.00014814,-2.644e-05,0.0,0 STARLINK-5175,1 54079U 22136AE  23288.21919240 -.00002644  00000-0 -14814-3 0  9999,2 54079  53.2167 308.9713 0001780 105.6464 254.4724 15.08825670 55149,6917.924,95.438,541.021,538.558,0.0
54079.0,STARLINK-5175,PAYLOAD,2023-10-15 08:26:24,15.08825834,0.0001597,53.2167,308.3778,92.9721,267.1453,-8.7798e-05,-1.684e-05,0.0,0 STARLINK-5175,1 54079U 22136AE  23288.35167583 -.00001684  00000-0 -87798-4 0  9994,2 54079  53.2167 308.3778 0001597  92.9721 267.1453 15.08825834 54684,6917.924,95.438,540.893,538.684,0.0
